ONEWEB-0108             
1 48076U 21025AL  23281.68968474 -.00000011  00000+0 -64019-4 0  9990
2 48076  87.9051 155.7176 0001848  82.1348 277.9991 13.13471080124678
ONEWEB-0169             
1 48077U 21025AM  23281.71931670  .00000342  00000+0  90256-3 0  9999
2 48077  87.9049 155.7136 0001846  88.9011 271.2330 13.13470900123337
ONEWEB-0176             
1 48210U 21031A   23281.80207629  .00000151  00000+0  37176-3 0  9995
2 48210  87.8953 125.2604 0001640  82.3296 277.8020 13.14502026119256
ONEWEB-0184             
1 48211U 21031B   23281.85282455  .00000168  00000+0  41990-3 0  9998
2 48211  87.8964 125.2327 0002241  52.1186 308.0147 13.14504939119232
ONEWEB-0179             
1 48212U 21031C   23281.82109968 -.00000081  00000+0 -25295-3 0  9999
2 48212  87.8965 125.2337 0001368  83.5429 276.5856 13.14505433119272
ONEWEB-0180             
1 48213U 21031D   23281.85492529  .00000124  00000+0  29865-3 0  9994
2 48213  87.8965 125.2302 0001385  80.8668 279.2618 13.14505012119166
ONEWEB-0218             
1 48214U 21031E   23281.79995591  .00000110  00000+0  26298-3 0  9997
2 48214  87.8966 125.2429 0001860  41.5580 318.5690 13.14499244119316
ONEWEB-0209             
1 48215U 21031F   23281.86550079  .00000293  00000+0  75487-3 0  9990
2 48215  87.8957 125.2684 0001540  83.9378 276.1927 13.14501436119320
